[{"OBJECT_NAME":"STARLINK-3797","OBJECT_ID":"2022-045G","EPOCH":"2026-03-09T15:37:44.174208","MEAN_MOTION":15.088433,"ECCENTRICITY":0.00011521,"INCLINATION":53.217,"RA_OF_ASC_NODE":209.296,"ARG_OF_PERICENTER":89.7817,"MEAN_ANOMALY":270.3307,"EPHEMERIS_TYPE":0,"CLASSIFICATION_TYPE":"U","NORAD_CAT_ID":52337,"ELEMENT_SET_NO":999,"REV_AT_EPOCH":21563,"BSTAR":-3.7939671e-5,"MEAN_MOTION_DOT":-8.92e-6,"MEAN_MOTION_DDOT":0},{"OBJECT_NAME":"FENGYUN 1C DEB","OBJECT_ID":"1999-025AMC","EPOCH":"2026-03-09T19:39:36.291456","MEAN_MOTION":15.06799557,"ECCENTRICITY":0.00299661,"INCLINATION":98.9468,"RA_OF_ASC_NODE":22.995,"ARG_OF_PERICENTER":242.9892,"MEAN_ANOMALY":116.8272,"EPHEMERIS_TYPE":0,"CLASSIFICATION_TYPE":"U","NORAD_CAT_ID":30597,"ELEMENT_SET_NO":999,"REV_AT_EPOCH":99841,"BSTAR":0.005730905,"MEAN_MOTION_DOT":0.00087128,"MEAN_MOTION_DDOT":0}]
